[{"OBJECT_NAME":"STARLINK-34915","OBJECT_ID":"2025-175P","EPOCH":"2026-03-09T15:27:15.778368","MEAN_MOTION":15.0567095,"ECCENTRICITY":0.0002365,"INCLINATION":97.602,"RA_OF_ASC_NODE":302.6143,"ARG_OF_PERICENTER":82.3451,"MEAN_ANOMALY":277.8045,"EPHEMERIS_TYPE":0,"CLASSIFICATION_TYPE":"U","NORAD_CAT_ID":65187,"ELEMENT_SET_NO":999,"REV_AT_EPOCH":3263,"BSTAR":0.00024839,"MEAN_MOTION_DOT":3.527e-5,"MEAN_MOTION_DDOT":0},{"OBJECT_NAME":"PEGASUS DEB","OBJECT_ID":"1994-029AEV","EPOCH":"2026-03-08T12:20:37.202208","MEAN_MOTION":14.52178672,"ECCENTRICITY":0.02317488,"INCLINATION":81.8165,"RA_OF_ASC_NODE":159.2415,"ARG_OF_PERICENTER":279.066,"MEAN_ANOMALY":78.4379,"EPHEMERIS_TYPE":0,"CLASSIFICATION_TYPE":"U","NORAD_CAT_ID":39310,"ELEMENT_SET_NO":999,"REV_AT_EPOCH":82956,"BSTAR":0.001122164,"MEAN_MOTION_DOT":6.495e-5,"MEAN_MOTION_DDOT":0}]
